NORAD_CAT_ID,OBJECT_NAME,OBJECT_TYPE,EPOCH,MEAN_MOTION,ECCENTRICITY,INCLINATION,RA_OF_ASC_NODE,ARG_OF_PERICENTER,MEAN_ANOMALY,BSTAR,MEAN_MOTION_DOT,MEAN_MOTION_DDOT,TLE_LINE0,TLE_LINE1,TLE_LINE2,SEMIMAJOR_AXIS,PERIOD,APOGEE,PERIGEE,DECAYED
52587.0,STARLINK-3867,PAYLOAD,2024-06-04 15:40:49,15.08816692,0.0001601,53.2163,125.6727,108.3708,251.7459,-0.00013584,-2.448e-05,0.0,0 STARLINK-3867,1 52587U 22051BD  24156.65335391 -.00002448  00000-0 -13584-3 0  9994,2 52587  53.2163 125.6727 0001601 108.3708 251.7459 15.08816692114582,6917.952,95.439,540.924,538.709,0.0
52587.0,STARLINK-3867,PAYLOAD,2024-06-04 22:02:22,15.08787815,0.0002067,53.2161,124.4827,120.2345,239.8852,0.00018027,2.578e-05,0.0,0 STARLINK-3867,1 52587U 22051BD  24156.91832032  .00002578  00000-0  18027-3 0  9996,2 52587  53.2161 124.4827 0002067 120.2345 239.8852 15.08787815114550,6918.04,95.441,541.335,538.475,0.0
52587.0,STARLINK-3867,PAYLOAD,2024-06-05 04:23:56,15.08778144,0.0001813,53.2183,123.2964,109.1326,250.9862,0.00019994,2.89e-05,0.0,0 STARLINK-3867,1 52587U 22051BD  24157.18329441  .00002890  00000-0  19994-3 0  9992,2 52587  53.2183 123.2964 0001813 109.1326 250.9862 15.08778144114668,6918.069,95.441,541.189,538.68,0.0
52587.0,STARLINK-3867,PAYLOAD,2024-06-05 21:53:09,15.08828289,0.0001379,53.2171,120.0286,89.5791,270.5359,2.3053e-05,7.9e-07,0.0,0 STARLINK-3867,1 52587U 22051BD  24157.91191869  .00000079  00000-0  23053-4 0  9993,2 52587  53.2171 120.0286 0001379  89.5791 270.5359 15.08828289114778,6917.916,95.438,540.735,538.827,0.0
52587.0,STARLINK-3867,PAYLOAD,2024-06-06 04:14:41,15.08842338,0.0001477,53.2178,118.8395,92.1059,268.0102,0.00014865,2.079e-05,0.0,0 STARLINK-3867,1 52587U 22051BD  24158.17686837  .00002079  00000-0  14865-3 0  9998,2 52587  53.2178 118.8395 0001477  92.1059 268.0102 15.08842338114811,6917.873,95.437,540.76,538.716,0.0
52587.0,STARLINK-3867,PAYLOAD,2024-06-06 13:46:59,15.08848353,0.000155,53.2179,117.0551,97.8179,262.299,0.00032434,4.879e-05,0.0,0 STARLINK-3867,1 52587U 22051BD  24158.57430136  .00004879  00000-0  32434-3 0  9993,2 52587  53.2179 117.0551 0001550  97.8179 262.2990 15.08848353114807,6917.855,95.437,540.792,538.648,0.0
52587.0,STARLINK-3867,PAYLOAD,2024-06-06 21:43:56,15.08830324,0.0001706,53.2176,115.5651,83.8777,276.241,0.0003782,5.735e-05,0.0,0 STARLINK-3867,1 52587U 22051BD  24158.90551468  .00005735  00000-0  37820-3 0  9998,2 52587  53.2176 115.5651 0001706  83.8777 276.2410 15.08830324114924,6917.91,95.438,540.955,538.595,0.0
52587.0,STARLINK-3867,PAYLOAD,2024-06-07 13:37:47,15.08851341,0.0001754,53.2177,112.5958,86.7803,273.339,0.0002433,3.587e-05,0.0,0 STARLINK-3867,1 52587U 22051BD  24159.56790623  .00003587  00000-0  24330-3 0  9994,2 52587  53.2177 112.5958 0001754  86.7803 273.3390 15.08851341114957,6917.846,95.437,540.924,538.497,0.0
52587.0,STARLINK-3867,PAYLOAD,2024-06-08 13:28:32,15.0886602,0.0001537,53.2189,108.1351,95.2106,264.9061,6.8992e-05,8.11e-06,0.0,0 STARLINK-3867,1 52587U 22051BD  24160.56149026  .00000811  00000-0  68992-4 0  9991,2 52587  53.2189 108.1351 0001537  95.2106 264.9061 15.08866020115107,6917.801,95.436,540.729,538.603,0.0
52587.0,STARLINK-3867,PAYLOAD,2024-06-09 03:47:02,15.08840585,0.0001961,53.2185,105.4563,84.7615,275.3601,-7.5065e-05,-1.483e-05,0.0,0 STARLINK-3867,1 52587U 22051BD  24161.15766894 -.00001483  00000-0 -75065-4 0  9992,2 52587  53.2185 105.4563 0001961  84.7615 275.3601 15.08840585115268,6917.879,95.438,541.1,538.387,0.0
52587.0,STARLINK-3867,PAYLOAD,2024-06-09 19:40:53,15.08839677,0.000157,53.2182,102.4812,83.7329,276.3842,6.8846e-06,-1.78e-06,0.0,0 STARLINK-3867,1 52587U 22051BD  24161.82006020 -.00000178  00000-0  68846-5 0  9993,2 52587  53.2182 102.4812 0001570  83.7329 276.3842 15.08839677115297,6917.881,95.438,540.832,538.66,0.0
52587.0,STARLINK-3867,PAYLOAD,2024-06-10 03:37:48,15.08845579,0.0001417,53.2173,100.9957,87.7338,272.3817,-1.3631e-05,-5.05e-06,0.0,0 STARLINK-3867,1 52587U 22051BD  24162.15125739 -.00000505  00000-0 -13631-4 0  9995,2 52587  53.2173 100.9957 0001417  87.7338 272.3817 15.08845579115414,6917.863,95.437,540.709,538.748,0.0
52587.0,STARLINK-3867,PAYLOAD,2024-06-10 13:10:07,15.08854106,0.0001392,53.2174,99.2103,84.3356,275.7795,0.00013977,1.938e-05,0.0,0 STARLINK-3867,1 52587U 22051BD  24162.54869255  .00001938  00000-0  13977-3 0  9997,2 52587  53.2174  99.2103 0001392  84.3356 275.7795 15.08854106115400,6917.837,95.437,540.665,538.739,0.0
52587.0,STARLINK-3867,PAYLOAD,2024-06-11 05:03:59,15.08841651,0.0001379,53.2163,96.2359,100.7789,259.3359,0.00020595,2.991e-05,0.0,0 STARLINK-3867,1 52587U 22051BD  24163.21110091  .00002991  00000-0  20595-3 0  9993,2 52587  53.2163  96.2359 0001379 100.7789 259.3359 15.08841651115579,6917.875,95.437,540.694,538.786,0.0
52587.0,STARLINK-3867,PAYLOAD,2024-06-11 13:00:54,15.0885429,0.000136,53.2168,94.7496,100.4569,259.6576,0.00042421,6.472e-05,0.0,0 STARLINK-3867,1 52587U 22051BD  24163.54229599  .00006472  00000-0  42421-3 0  9993,2 52587  53.2168  94.7496 0001360 100.4569 259.6576 15.08854290115557,6917.837,95.437,540.643,538.761,0.0
52587.0,STARLINK-3867,PAYLOAD,2024-06-12 01:44:00,15.08837062,0.0001436,53.2173,92.3705,92.9332,267.1825,4.3789e-05,4.09e-06,0.0,0 STARLINK-3867,1 52587U 22051BD  24164.07222242  .00000409  00000-0  43789-4 0  9993,2 52587  53.2173  92.3705 0001436  92.9332 267.1825 15.08837062115703,6917.889,95.438,540.748,538.761,0.0
52587.0,STARLINK-3867,PAYLOAD,2024-06-12 22:24:00,15.08841713,0.0001683,53.2197,88.5068,96.8419,263.2764,0.00020879,3.037e-05,0.0,0 STARLINK-3867,1 52587U 22051BD  24164.93334444  .00003037  00000-0  20879-3 0  9990,2 52587  53.2197  88.5068 0001683  96.8419 263.2764 15.08841713115764,6917.875,95.437,540.904,538.576,0.0
52587.0,STARLINK-3867,PAYLOAD,2024-06-13 04:45:33,15.0884096,0.0001692,53.2192,87.3167,98.6083,261.5101,0.00013609,1.879e-05,0.0,0 STARLINK-3867,1 52587U 22051BD  24165.19830498  .00001879  00000-0  13609-3 0  9994,2 52587  53.2192  87.3167 0001692  98.6083 261.5101 15.08840960115874,6917.877,95.437,540.913,538.572,0.0
52587.0,STARLINK-3867,PAYLOAD,2024-06-13 22:14:47,15.08842111,0.0001607,53.218,84.0449,109.8911,250.2254,0.00020326,2.949e-05,0.0,0 STARLINK-3867,1 52587U 22051BD  24165.92694379  .00002949  00000-0  20326-3 0  9994,2 52587  53.2180  84.0449 0001607 109.8911 250.2254 15.08842111115918,6917.874,95.437,540.851,538.627,0.0
52587.0,STARLINK-3867,PAYLOAD,2024-06-14 10:57:52,15.08852308,0.000137,53.2176,81.668,83.0137,277.1011,0.0002441,3.6e-05,0.0,0 STARLINK-3867,1 52587U 22051BD  24166.45685826  .00003600  00000-0  24410-3 0  9993,2 52587  53.2176  81.6680 0001370  83.0137 277.1011 15.08852308115999,6917.843,95.437,540.656,538.76,0.0
52587.0,STARLINK-3867,PAYLOAD,2024-06-14 22:05:35,15.08833047,0.0001371,53.2176,79.585,87.3492,272.7657,1.7562e-05,-8e-08,0.0,0 STARLINK-3867,1 52587U 22051BD  24166.92054825 -.00000008  00000-0  17562-4 0  9995,2 52587  53.2176  79.5850 0001371  87.3492 272.7657 15.08833047116061,6917.902,95.438,540.715,538.818,0.0
52587.0,STARLINK-3867,PAYLOAD,2024-06-15 10:48:39,15.08853514,0.0001401,53.2182,77.2086,94.651,265.4643,0.00028517,4.255e-05,0.0,0 STARLINK-3867,1 52587U 22051BD  24167.45045791  .00004255  00000-0  28517-3 0  9994,2 52587  53.2182  77.2086 0001401  94.6510 265.4643 15.08853514116144,6917.839,95.437,540.673,538.735,0.0
52587.0,STARLINK-3867,PAYLOAD,2024-06-15 21:56:22,15.08839125,0.0001332,53.2179,75.1271,90.0189,270.0955,2.6203e-06,-2.46e-06,0.0,0 STARLINK-3867,1 52587U 22051BD  24167.91414416 -.00000246  00000-0  26203-5 0  9998,2 52587  53.2179  75.1271 0001332  90.0189 270.0955 15.08839125116216,6917.883,95.438,540.67,538.827,0.0
52587.0,STARLINK-3867,PAYLOAD,2024-06-16 10:39:26,15.08859613,0.0001479,53.217,72.7494,81.0589,279.057,0.0005693,8.789e-05,0.0,0 STARLINK-3867,1 52587U 22051BD  24168.44405769  .00008789  00000-0  56930-3 0  9995,2 52587  53.2170  72.7494 0001479  81.0589 279.0570 15.08859613116297,6917.82,95.436,540.709,538.662,0.0
52587.0,STARLINK-3867,PAYLOAD,2024-06-16 21:47:09,15.08833227,0.0001406,53.2184,70.6672,84.9974,275.1179,0.00029426,4.397e-05,0.0,0 STARLINK-3867,1 52587U 22051BD  24168.90774558  .00004397  00000-0  29426-3 0  9992,2 52587  53.2184  70.6672 0001406  84.9974 275.1179 15.08833227116360,6917.901,95.438,540.739,538.793,0.0
52587.0,STARLINK-3867,PAYLOAD,2024-06-17 21:37:56,15.08840524,0.0001513,53.2172,66.2075,83.3875,276.7289,0.00059979,9.271e-05,0.0,0 STARLINK-3867,1 52587U 22051BD  24169.90135133  .00009271  00000-0  59979-3 0  9995,2 52587  53.2172  66.2075 0001513  83.3875 276.7289 15.08840524116588,6917.879,95.438,540.79,538.697,0.0
52587.0,STARLINK-3867,PAYLOAD,2024-06-17 23:13:19,15.08843041,0.0001392,53.2166,65.9102,85.5859,274.5292,0.00065904,0.00010217,0.0,0 STARLINK-3867,1 52587U 22051BD  24169.96759061  .00010217  00000-0  65904-3 0  9990,2 52587  53.2166  65.9102 0001392  85.5859 274.5292 15.08843041116520,6917.871,95.437,540.699,538.773,0.0
52587.0,STARLINK-3867,PAYLOAD,2024-06-18 10:21:01,15.08855111,0.000134,53.2166,63.827,86.2435,273.8711,0.0008021,0.00012506,0.0,0 STARLINK-3867,1 52587U 22051BD  24170.43126694  .00012506  00000-0  80210-3 0  9994,2 52587  53.2166  63.8270 0001340  86.2435 273.8711 15.08855111116590,6917.834,95.437,540.626,538.772,0.0
52587.0,STARLINK-3867,PAYLOAD,2024-06-18 23:04:06,15.08859508,0.0001901,53.2181,61.4491,92.7097,267.4113,0.00081757,0.00012754,0.0,0 STARLINK-3867,1 52587U 22051BD  24170.96118592  .00012754  00000-0  81757-3 0  9992,2 52587  53.2181  61.4491 0001901  92.7097 267.4113 15.08859508116673,6917.821,95.436,541.001,538.371,0.0
52587.0,STARLINK-3867,PAYLOAD,2024-06-19 10:11:48,15.08857306,0.0001542,53.2185,59.366,97.1042,263.0126,0.00048027,7.367e-05,0.0,0 STARLINK-3867,1 52587U 22051BD  24171.42486150  .00007367  00000-0  48027-3 0  9999,2 52587  53.2185  59.3660 0001542  97.1042 263.0126 15.08857306116817,6917.827,95.436,540.759,538.626,0.0
